NORAD_CAT_ID,OBJECT_NAME,OBJECT_TYPE,EPOCH,MEAN_MOTION,ECCENTRICITY,INCLINATION,RA_OF_ASC_NODE,ARG_OF_PERICENTER,MEAN_ANOMALY,BSTAR,MEAN_MOTION_DOT,MEAN_MOTION_DDOT,TLE_LINE0,TLE_LINE1,TLE_LINE2,SEMIMAJOR_AXIS,PERIOD,APOGEE,PERIGEE,DECAYED
52490.0,STARLINK-3914,PAYLOAD,2023-04-08 23:00:45,15.08842021,0.0001448,53.2136,153.3718,89.1464,270.9694,0.00010848,1.439e-05,0.0,0 STARLINK-3914,1 52490U 22049AR  23098.95885459  .00001439  00000-0  10848-3 0  9993,2 52490  53.2136 153.3718 0001448  89.1464 270.9694 15.08842021 51665,6917.874,95.437,540.741,538.738,0.0
52490.0,STARLINK-3914,PAYLOAD,2023-04-09 13:19:13,15.0884473,0.0001399,53.2136,150.6937,89.7978,270.3174,0.00014474,2.017e-05,0.0,0 STARLINK-3914,1 52490U 22049AR  23099.55501236  .00002017  00000-0  14474-3 0  9990,2 52490  53.2136 150.6937 0001399  89.7978 270.3174 15.08844730 51597,6917.866,95.437,540.699,538.763,0.0
52490.0,STARLINK-3914,PAYLOAD,2023-04-10 03:37:41,15.08842186,0.0001378,53.2132,148.0159,92.5753,267.5397,4.9632e-05,5.02e-06,0.0,0 STARLINK-3914,1 52490U 22049AR  23100.15117334  .00000502  00000-0  49632-4 0  9993,2 52490  53.2132 148.0159 0001378  92.5753 267.5397 15.08842186 51846,6917.874,95.437,540.692,538.785,0.0
52490.0,STARLINK-3914,PAYLOAD,2023-04-10 08:23:50,15.08841643,0.0001355,53.2132,147.1235,92.5454,267.5694,2.8244e-05,1.62e-06,0.0,0 STARLINK-3914,1 52490U 22049AR  23100.34989336  .00000162  00000-0  28244-4 0  9991,2 52490  53.2132 147.1235 0001355  92.5454 267.5694 15.08841643 51717,6917.875,95.437,540.678,538.803,0.0
52490.0,STARLINK-3914,PAYLOAD,2023-04-10 19:31:32,15.08840249,4.6e-05,53.2155,145.0467,97.2881,262.8164,-7.393e-05,-1.464e-05,0.0,0 STARLINK-3914,1 52490U 22049AR  23100.81357010 -.00001464  00000-0 -73930-4 0  9991,2 52490  53.2155 145.0467 0000460  97.2881 262.8164 15.08840249 51786,6917.88,95.438,540.063,539.426,0.0
52490.0,STARLINK-3914,PAYLOAD,2023-04-11 08:14:37,15.08842777,0.0001335,53.2133,142.664,96.1512,263.9632,0.00010099,1.32e-05,0.0,0 STARLINK-3914,1 52490U 22049AR  23101.34349076  .00001320  00000-0  10099-3 0  9998,2 52490  53.2133 142.6640 0001335  96.1512 263.9632 15.08842777 52027,6917.872,95.437,540.66,538.813,0.0
52490.0,STARLINK-3914,PAYLOAD,2023-04-12 03:19:15,15.08836173,0.0001285,53.2141,139.0961,99.4731,260.6407,-3.4036e-05,-8.29e-06,0.0,0 STARLINK-3914,1 52490U 22049AR  23102.13837507 -.00000829  00000-0 -34036-4 0  9990,2 52490  53.2141 139.0961 0001285  99.4731 260.6407 15.08836173 52145,6917.892,95.438,540.646,538.868,0.0
52490.0,STARLINK-3914,PAYLOAD,2023-04-12 09:40:48,15.08835991,0.0001256,53.2143,137.9068,97.9769,262.1366,-2.4903e-05,-6.84e-06,0.0,0 STARLINK-3914,1 52490U 22049AR  23102.40333569 -.00000684  00000-0 -24903-4 0  9990,2 52490  53.2143 137.9068 0001256  97.9769 262.1366 15.08835991 52029,6917.893,95.438,540.627,538.889,0.0
52490.0,STARLINK-3914,PAYLOAD,2023-04-13 09:31:35,15.0883838,0.0001309,53.2154,133.4467,91.15,268.9642,6.4903e-05,7.45e-06,0.0,0 STARLINK-3914,1 52490U 22049AR  23103.39693999  .00000745  00000-0  64903-4 0  9995,2 52490  53.2154 133.4467 0001309  91.1500 268.9642 15.08838380 52175,6917.885,95.438,540.656,538.845,0.0
52490.0,STARLINK-3914,PAYLOAD,2023-04-13 19:03:54,15.08839467,0.0001254,53.2147,131.6616,90.3156,269.798,0.00012751,1.742e-05,0.0,0 STARLINK-3914,1 52490U 22049AR  23103.79437828  .00001742  00000-0  12751-3 0  9997,2 52490  53.2147 131.6616 0001254  90.3156 269.7980 15.08839467 52395,6917.882,95.438,540.615,538.88,0.0
52490.0,STARLINK-3914,PAYLOAD,2023-04-14 10:57:45,15.08846842,0.0001337,53.2141,128.6879,89.1451,270.9694,0.0002216,3.241e-05,0.0,0 STARLINK-3914,1 52490U 22049AR  23104.45677543  .00003241  00000-0  22160-3 0  9992,2 52490  53.2141 128.6879 0001337  89.1451 270.9694 15.08846842 52337,6917.859,95.437,540.649,538.8,0.0
52490.0,STARLINK-3914,PAYLOAD,2023-04-15 12:23:55,15.08845988,0.0001446,53.214,123.9297,83.2233,276.8923,0.0002372,3.49e-05,0.0,0 STARLINK-3914,1 52490U 22049AR  23105.51661909  .00003490  00000-0  23720-3 0  9998,2 52490  53.2140 123.9297 0001446  83.2233 276.8923 15.08845988 52499,6917.862,95.437,540.727,538.727,0.0
52490.0,STARLINK-3914,PAYLOAD,2023-04-15 18:45:28,15.08841691,0.0001555,53.2147,122.7406,78.96,281.1567,0.00014189,1.971e-05,0.0,0 STARLINK-3914,1 52490U 22049AR  23105.78158143  .00001971  00000-0  14189-3 0  9999,2 52490  53.2147 122.7406 0001555  78.9600 281.1567 15.08841691 52530,6917.875,95.437,540.816,538.664,0.0
52490.0,STARLINK-3914,PAYLOAD,2023-04-16 12:14:42,15.08849226,0.0001564,53.2153,119.469,81.8992,278.2178,0.00029115,4.35e-05,0.0,0 STARLINK-3914,1 52490U 22049AR  23106.51021939  .00004350  00000-0  29115-3 0  9992,2 52490  53.2153 119.4690 0001564  81.8992 278.2178 15.08849226 52641,6917.852,95.437,540.799,538.635,0.0
52490.0,STARLINK-3914,PAYLOAD,2023-04-17 12:05:29,15.08856418,0.0001492,53.2155,115.0077,93.2379,266.8784,0.00035282,5.334e-05,0.0,0 STARLINK-3914,1 52490U 22049AR  23107.50381364  .00005334  00000-0  35282-3 0  9998,2 52490  53.2155 115.0077 0001492  93.2379 266.8784 15.08856418 52951,6917.83,95.437,540.727,538.663,0.0
52490.0,STARLINK-3914,PAYLOAD,2023-04-18 10:20:54,15.08837768,0.0001519,53.2148,110.8439,111.0584,249.0571,2.7444e-05,1.49e-06,0.0,0 STARLINK-3914,1 52490U 22049AR  23108.43118156  .00000149  00000-0  27444-4 0  9999,2 52490  53.2148 110.8439 0001519 111.0584 249.0571 15.08837768 52937,6917.887,95.438,540.803,538.701,0.0
52490.0,STARLINK-3914,PAYLOAD,2023-04-18 16:42:26,15.08837806,0.0001432,53.2142,109.6551,109.2547,250.86,4.922e-05,4.95e-06,0.0,0 STARLINK-3914,1 52490U 22049AR  23108.69614222  .00000495  00000-0  49220-4 0  9992,2 52490  53.2142 109.6551 0001432 109.2547 250.8600 15.08837806 52974,6917.887,95.438,540.743,538.761,0.0
52490.0,STARLINK-3914,PAYLOAD,2023-04-19 10:11:41,15.08838612,0.0001347,53.2144,106.3848,100.6059,259.5085,0.00023825,3.506e-05,0.0,0 STARLINK-3914,1 52490U 22049AR  23109.42478689  .00003506  00000-0  23825-3 0  9997,2 52490  53.2144 106.3848 0001347 100.6059 259.5085 15.08838612 53089,6917.885,95.438,540.681,538.818,0.0
52490.0,STARLINK-3914,PAYLOAD,2023-04-19 16:33:14,15.08839624,0.0001328,53.2143,105.1952,99.2459,260.8683,0.00029249,4.37e-05,0.0,0 STARLINK-3914,1 52490U 22049AR  23109.68974774  .00004370  00000-0  29249-3 0  9997,2 52490  53.2143 105.1952 0001328  99.2459 260.8683 15.08839624 53125,6917.882,95.438,540.665,538.828,0.0
52490.0,STARLINK-3914,PAYLOAD,2023-04-20 08:27:05,15.08848202,0.0001318,53.2145,102.2216,100.6315,259.4826,0.0003544,5.358e-05,0.0,0 STARLINK-3914,1 52490U 22049AR  23110.35214471  .00005358  00000-0  35440-3 0  9991,2 52490  53.2145 102.2216 0001318 100.6315 259.4826 15.08848202 53221,6917.855,95.437,540.632,538.809,0.0
52490.0,STARLINK-3914,PAYLOAD,2023-04-20 16:24:01,15.08843038,0.0001314,53.2145,100.7347,97.4816,262.6326,0.00018296,2.625e-05,0.0,0 STARLINK-3914,1 52490U 22049AR  23110.68334592  .00002625  00000-0  18296-3 0  9998,2 52490  53.2145 100.7347 0001314  97.4816 262.6326 15.08843038 53272,6917.871,95.437,540.645,538.827,0.0
52490.0,STARLINK-3914,PAYLOAD,2023-04-21 05:07:06,15.08831175,0.000138,53.2148,98.3556,90.8055,269.3095,-9.7889e-05,-1.845e-05,0.0,0 STARLINK-3914,1 52490U 22049AR  23111.21327123 -.00001845  00000-0 -97889-4 0  9991,2 52490  53.2148  98.3556 0001380  90.8055 269.3095 15.08831175 53359,6917.907,95.438,540.727,538.818,0.0
52490.0,STARLINK-3914,PAYLOAD,2023-04-21 16:14:48,15.08839975,0.0001347,53.2153,96.2747,88.612,271.5026,9.8128e-05,1.274e-05,0.0,0 STARLINK-3914,1 52490U 22049AR  23111.67695133  .00001274  00000-0  98128-4 0  9991,2 52490  53.2153  96.2747 0001347  88.6120 271.5026 15.08839975 53428,6917.88,95.438,540.677,538.814,0.0
52490.0,STARLINK-3914,PAYLOAD,2023-04-23 07:59:26,15.08840385,0.0001017,53.2149,88.8396,99.3814,260.7293,0.00011617,1.562e-05,0.0,0 STARLINK-3914,1 52490U 22049AR  23113.33295109  .00001562  00000-0  11617-3 0  9992,2 52490  53.2149  88.8396 0001017  99.3814 260.7293 15.08840385 53831,6917.879,95.438,540.448,539.041,0.0
52490.0,STARLINK-3914,PAYLOAD,2023-04-24 07:50:14,15.08846905,0.000122,53.2158,84.3794,88.7292,271.3839,0.00035082,5.301e-05,0.0,0 STARLINK-3914,1 52490U 22049AR  23114.32655629  .00005301  00000-0  35082-3 0  9996,2 52490  53.2158  84.3794 0001220  88.7292 271.3839 15.08846905 53829,6917.859,95.437,540.568,538.88,0.0
52490.0,STARLINK-3914,PAYLOAD,2023-04-25 04:30:14,15.08872923,0.0001234,53.2154,80.5141,87.7142,272.3991,0.00088805,0.00013886,0.0,0 STARLINK-3914,1 52490U 22049AR  23115.18766558  .00013886  00000-0  88805-3 0  9993,2 52490  53.2154  80.5141 0001234  87.7142 272.3991 15.08872923 54119,6917.78,95.435,540.498,538.791,0.0
52490.0,STARLINK-3914,PAYLOAD,2023-04-25 06:05:37,15.08880341,0.0001264,53.216,80.217,88.2843,271.8294,0.0009157,0.00014331,0.0,0 STARLINK-3914,1 52490U 22049AR  23115.25390308  .00014331  00000-0  91570-3 0  9996,2 52490  53.2160  80.2170 0001264  88.2843 271.8294 15.08880341 53967,6917.757,95.435,540.496,538.748,0.0
52490.0,STARLINK-3914,PAYLOAD,2023-04-26 07:31:48,15.08819958,8.06e-05,53.217,75.4591,96.9359,263.1725,-8.0083e-05,-1.561e-05,0.0,0 STARLINK-3914,1 52490U 22049AR  23116.31375852 -.00001561  00000-0 -80083-4 0  9992,2 52490  53.2170  75.4591 0000806  96.9359 263.1725 15.08819958 54128,6917.942,95.439,540.364,539.249,0.0
52490.0,STARLINK-3914,PAYLOAD,2023-04-27 04:11:50,15.08833685,7.27e-05,53.2169,71.594,104.0742,256.0331,0.0005379,8.282e-05,0.0,0 STARLINK-3914,1 52490U 22049AR  23117.17488583  .00008282  00000-0  53790-3 0  9992,2 52490  53.2169  71.5940 0000727 104.0742 256.0331 15.08833685 54419,6917.9,95.438,540.268,539.262,0.0
52490.0,STARLINK-3914,PAYLOAD,2023-04-27 05:47:13,15.08836291,7.39e-05,53.217,71.2964,98.8805,261.227,0.00056803,8.763e-05,0.0,0 STARLINK-3914,1 52490U 22049AR  23117.24112568  .00008763  00000-0  56803-3 0  9999,2 52490  53.2170  71.2964 0000739  98.8805 261.2270 15.08836291 54266,6917.892,95.438,540.268,539.245,0.0
